start=new Date('2023-04-01T00:00:00.000Z').valueOf();
sats=[{"RA_OF_ASC_NODE":"141.3521","SITE":"AFWTR","REF_FRAME":"TEME","TLE_LINE1":"1 55935U 23037X   23090.91667824 -.00905849  00000-0 -61546-2 0  9990","CLASSIFICATION_TYPE":"U","PERIOD":"91.308","RCS_SIZE":null,"TLE_LINE2":"2 55935  70.0003 141.3521 0003688 284.3597 300.6979 15.77087286  2747","ARG_OF_PERICENTER":"284.3597","EPOCH":"2023-03-31T22:00:00.999936","ELEMENT_SET_NO":"999","TIME_SYSTEM":"UTC","ECCENTRICITY":"0.00036880","GP_ID":"229207535","MEAN_ELEMENT_THEORY":"SGP4","MEAN_MOTION":"15.77087286","NORAD_CAT_ID":"55935","APOAPSIS":"341.177","OBJECT_ID":"2023-037X","INCLINATION":"70.0003","OBJECT_NAME":"STARLINK-5920","EPHEMERIS_TYPE":"0","MEAN_ANOMALY":"300.6979","COUNTRY_CODE":"US","LAUNCH_DATE":"2023-03-17","DECAY_DATE":null,"PERIAPSIS":"336.223","OBJECT_TYPE":"PAYLOAD","REV_AT_EPOCH":"274","SEMIMAJOR_AXIS":"6716.835","CENTER_NAME":"EARTH","MEAN_MOTION_DOT":"-0.00905849","MEAN_MOTION_DDOT":"0.0000000000000","BSTAR":"-0.00615460000000","FILE":"3876588"},{"OBJECT_ID":"2023-037Y","INCLINATION":"70.0003","OBJECT_NAME":"STARLINK-5882","MEAN_ANOMALY":"313.2283","EPHEMERIS_TYPE":"0","LAUNCH_DATE":"2023-03-17","COUNTRY_CODE":"US","DECAY_DATE":null,"NORAD_CAT_ID":"55936","APOAPSIS":"340.383","SEMIMAJOR_AXIS":"6716.004","CENTER_NAME":"EARTH","MEAN_MOTION_DOT":"-0.00898314","MEAN_MOTION_DDOT":"0.0000000000000","BSTAR":"-0.00601850000000","FILE":"3876591","PERIAPSIS":"335.355","OBJECT_TYPE":"PAYLOAD","REV_AT_EPOCH":"274","CLASSIFICATION_TYPE":"U","PERIOD":"91.291","RCS_SIZE":null,"RA_OF_ASC_NODE":"141.3357","SITE":"AFWTR","REF_FRAME":"TEME","TLE_LINE1":"1 55936U 23037Y   23090.91667824 -.00898314  00000-0 -60185-2 0  9997","GP_ID":"229208044","ECCENTRICITY":"0.00037430","MEAN_ELEMENT_THEORY":"SGP4","MEAN_MOTION":"15.77380026","TLE_LINE2":"2 55936  70.0003 141.3357 0003743 285.6911 313.2283 15.77380026  2747","ARG_OF_PERICENTER":"285.6911","EPOCH":"2023-03-31T22:00:00.999936","ELEMENT_SET_NO":"999","TIME_SYSTEM":"UTC"},{"OBJECT_ID":"2023-037Z","EPHEMERIS_TYPE":"0","INCLINATION":"70.0000","OBJECT_NAME":"STARLINK-5913","MEAN_ANOMALY":"299.8672","COUNTRY_CODE":"US","LAUNCH_DATE":"2023-03-17","DECAY_DATE":null,"NORAD_CAT_ID":"55937","APOAPSIS":"341.150","CENTER_NAME":"EARTH","SEMIMAJOR_AXIS":"6716.794","MEAN_MOTION_DOT":"-0.00911875","BSTAR":"-0.00619590000000","MEAN_MOTION_DDOT":"0.0000000000000","FILE":"3876591","PERIAPSIS":"336.168","OBJECT_TYPE":"PAYLOAD","REV_AT_EPOCH":"274","CLASSIFICATION_TYPE":"U","PERIOD":"91.307","RCS_SIZE":null,"RA_OF_ASC_NODE":"141.3515","SITE":"AFWTR","REF_FRAME":"TEME","TLE_LINE1":"1 55937U 23037Z   23090.91667824 -.00911875  00000-0 -61959-2 0  9996","GP_ID":"229208049","ECCENTRICITY":"0.00037090","MEAN_ELEMENT_THEORY":"SGP4","MEAN_MOTION":"15.77101802","ARG_OF_PERICENTER":"285.6447","TLE_LINE2":"2 55937  70.0000 141.3515 0003709 285.6447 299.8672 15.77101802  2741","TIME_SYSTEM":"UTC","EPOCH":"2023-03-31T22:00:00.999936","ELEMENT_SET_NO":"999"},{"CLASSIFICATION_TYPE":"U","PERIOD":"91.306","RCS_SIZE":null,"RA_OF_ASC_NODE":"141.3513","SITE":"AFWTR","REF_FRAME":"TEME","TLE_LINE1":"1 55938U 23037AA  23090.91667824 -.00905890  00000-0 -61505-2 0  9994","GP_ID":"229208043","ECCENTRICITY":"0.00034800","MEAN_ELEMENT_THEORY":"SGP4","MEAN_MOTION":"15.77106035","ARG_OF_PERICENTER":"266.0027","TLE_LINE2":"2 55938  70.0001 141.3513 0003480 266.0027 319.9944 15.77106035  2743","TIME_SYSTEM":"UTC","ELEMENT_SET_NO":"999","EPOCH":"2023-03-31T22:00:00.999936","OBJECT_ID":"2023-037AA","EPHEMERIS_TYPE":"0","OBJECT_NAME":"STARLINK-5909","INCLINATION":"70.0001","MEAN_ANOMALY":"319.9944","LAUNCH_DATE":"2023-03-17","COUNTRY_CODE":"US","DECAY_DATE":null,"NORAD_CAT_ID":"55938","APOAPSIS":"340.984","CENTER_NAME":"EARTH","SEMIMAJOR_AXIS":"6716.782","MEAN_MOTION_DOT":"-0.00905890","BSTAR":"-0.00615050000000","MEAN_MOTION_DDOT":"0.0000000000000","FILE":"3876591","PERIAPSIS":"336.309","OBJECT_TYPE":"PAYLOAD","REV_AT_EPOCH":"274"},{"COUNTRY_CODE":"US","LAUNCH_DATE":"2023-03-17","DECAY_DATE":null,"OBJECT_ID":"2023-037AB","OBJECT_NAME":"STARLINK-5918","INCLINATION":"70.0002","EPHEMERIS_TYPE":"0","MEAN_ANOMALY":"302.2659","NORAD_CAT_ID":"55939","APOAPSIS":"341.084","MEAN_MOTION_DDOT":"0.0000000000000","BSTAR":"-0.00607060000000","FILE":"3876592","SEMIMAJOR_AXIS":"6716.745","CENTER_NAME":"EARTH","MEAN_MOTION_DOT":"-0.00895825","OBJECT_TYPE":"PAYLOAD","REV_AT_EPOCH":"274","PERIAPSIS":"336.135","RCS_SIZE":null,"CLASSIFICATION_TYPE":"U","PERIOD":"91.306","REF_FRAME":"TEME","TLE_LINE1":"1 55939U 23037AB  23090.91667824 -.00895825  00000-0 -60706-2 0  9993","RA_OF_ASC_NODE":"141.3499","SITE":"AFWTR","MEAN_MOTION":"15.77119185","GP_ID":"229207558","ECCENTRICITY":"0.00036840","MEAN_ELEMENT_THEORY":"SGP4","ELEMENT_SET_NO":"999","EPOCH":"2023-03-31T22:00:00.999936","TIME_SYSTEM":"UTC","TLE_LINE2":"2 55939  70.0002 141.3499 0003684 284.6619 302.2659 15.77119185  2745","ARG_OF_PERICENTER":"284.6619"},{"CENTER_NAME":"EARTH","SEMIMAJOR_AXIS":"6716.761","MEAN_MOTION_DOT":"-0.00901962","BSTAR":"-0.00611830000000","MEAN_MOTION_DDOT":"0.0000000000000","FILE":"3876592","PERIAPSIS":"336.171","OBJECT_TYPE":"PAYLOAD","REV_AT_EPOCH":"274","OBJECT_ID":"2023-037AC","OBJECT_NAME":"STARLINK-5864","INCLINATION":"70.0003","EPHEMERIS_TYPE":"0","MEAN_ANOMALY":"302.9047","COUNTRY_CODE":"US","LAUNCH_DATE":"2023-03-17","DECAY_DATE":null,"NORAD_CAT_ID":"55940","APOAPSIS":"341.081","GP_ID":"229208062","ECCENTRICITY":"0.00036550","MEAN_ELEMENT_THEORY":"SGP4","MEAN_MOTION":"15.77113521","ARG_OF_PERICENTER":"283.5585","TLE_LINE2":"2 55940  70.0003 141.3505 0003655 283.5585 302.9047 15.77113521  2740","TIME_SYSTEM":"UTC","ELEMENT_SET_NO":"999","EPOCH":"2023-03-31T22:00:00.999936","CLASSIFICATION_TYPE":"U","PERIOD":"91.306","RCS_SIZE":null,"RA_OF_ASC_NODE":"141.3505","SITE":"AFWTR","REF_FRAME":"TEME","TLE_LINE1":"1 55940U 23037AC  23090.91667824 -.00901962  00000-0 -61183-2 0  9995"},{"SEMIMAJOR_AXIS":"6716.952","CENTER_NAME":"EARTH","MEAN_MOTION_DOT":"-0.00905027","MEAN_MOTION_DDOT":"0.0000000000000","BSTAR":"-0.00616000000000","FILE":"3876592","PERIAPSIS":"336.392","OBJECT_TYPE":"PAYLOAD","REV_AT_EPOCH":"274","OBJECT_ID":"2023-037AD","INCLINATION":"70.0001","OBJECT_NAME":"STARLINK-5914","MEAN_ANOMALY":"301.7002","EPHEMERIS_TYPE":"0","COUNTRY_CODE":"US","LAUNCH_DATE":"2023-03-17","DECAY_DATE":null,"NORAD_CAT_ID":"55941","APOAPSIS":"341.243","GP_ID":"229207567","ECCENTRICITY":"0.00036110","MEAN_ELEMENT_THEORY":"SGP4","MEAN_MOTION":"15.77046083","ARG_OF_PERICENTER":"281.5097","TLE_LINE2":"2 55941  70.0001 141.3544 0003611 281.5097 301.7002 15.77046083  2746","ELEMENT_SET_NO":"999","EPOCH":"2023-03-31T22:00:00.999936","TIME_SYSTEM":"UTC","CLASSIFICATION_TYPE":"U","PERIOD":"91.310","RCS_SIZE":null,"RA_OF_ASC_NODE":"141.3544","SITE":"AFWTR","REF_FRAME":"TEME","TLE_LINE1":"1 55941U 23037AD  23090.91667824 -.00905027  00000-0 -61600-2 0  9996"},{"RA_OF_ASC_NODE":"141.3467","SITE":"AFWTR","REF_FRAME":"TEME","TLE_LINE1":"1 55942U 23037AE  23090.91667824 -.00906310  00000-0 -61310-2 0  9991","CLASSIFICATION_TYPE":"U","PERIOD":"91.302","RCS_SIZE":null,"TLE_LINE2":"2 55942  70.0001 141.3467 0003497 273.7613 315.9100 15.77188457  2748","ARG_OF_PERICENTER":"273.7613","EPOCH":"2023-03-31T22:00:00.999936","ELEMENT_SET_NO":"999","TIME_SYSTEM":"UTC","GP_ID":"229208058","ECCENTRICITY":"0.00034970","MEAN_ELEMENT_THEORY":"SGP4","MEAN_MOTION":"15.77188457","NORAD_CAT_ID":"55942","APOAPSIS":"340.762","OBJECT_ID":"2023-037AE","OBJECT_NAME":"STARLINK-5917","INCLINATION":"70.0001","MEAN_ANOMALY":"315.9100","EPHEMERIS_TYPE":"0","COUNTRY_CODE":"US","LAUNCH_DATE":"2023-03-17","DECAY_DATE":null,"PERIAPSIS":"336.064","OBJECT_TYPE":"PAYLOAD","REV_AT_EPOCH":"274","SEMIMAJOR_AXIS":"6716.548","CENTER_NAME":"EARTH","MEAN_MOTION_DOT":"-0.00906310","MEAN_MOTION_DDOT":"0.0000000000000","BSTAR":"-0.00613100000000","FILE":"3876592"},{"APOAPSIS":"340.923","NORAD_CAT_ID":"55943","DECAY_DATE":null,"COUNTRY_CODE":"US","LAUNCH_DATE":"2023-03-17","EPHEMERIS_TYPE":"0","INCLINATION":"70.0002","OBJECT_NAME":"STARLINK-5932","MEAN_ANOMALY":"307.1192","OBJECT_ID":"2023-037AF","REV_AT_EPOCH":"274","OBJECT_TYPE":"PAYLOAD","PERIAPSIS":"336.058","FILE":"3876592","MEAN_MOTION_DDOT":"0.0000000000000","BSTAR":"-0.00606220000000","MEAN_MOTION_DOT":"-0.00896191","SEMIMAJOR_AXIS":"6716.625","CENTER_NAME":"EARTH","TLE_LINE1":"1 55943U 23037AF  23090.91667824 -.00896191  00000-0 -60622-2 0  9992","REF_FRAME":"TEME","SITE":"AFWTR","RA_OF_ASC_NODE":"141.3478","RCS_SIZE":null,"PERIOD":"91.303","CLASSIFICATION_TYPE":"U","ELEMENT_SET_NO":"999","EPOCH":"2023-03-31T22:00:00.999936","TIME_SYSTEM":"UTC","ARG_OF_PERICENTER":"281.6369","TLE_LINE2":"2 55943  70.0002 141.3478 0003622 281.6369 307.1192 15.77161142  2744","MEAN_MOTION":"15.77161142","MEAN_ELEMENT_THEORY":"SGP4","ECCENTRICITY":"0.00036220","GP_ID":"229208068"},{"REF_FRAME":"TEME","TLE_LINE1":"1 55944U 23037AG  23090.91667824 -.00906282  00000-0 -61336-2 0  9999","RA_OF_ASC_NODE":"141.3472","SITE":"AFWTR","RCS_SIZE":null,"CLASSIFICATION_TYPE":"U","PERIOD":"91.302","EPOCH":"2023-03-31T22:00:00.999936","ELEMENT_SET_NO":"999","TIME_SYSTEM":"UTC","ARG_OF_PERICENTER":"272.5293","TLE_LINE2":"2 55944  70.0001 141.3472 0003490 272.5293 316.6820 15.77178284  2744","MEAN_MOTION":"15.77178284","GP_ID":"229208074","ECCENTRICITY":"0.00034900","MEAN_ELEMENT_THEORY":"SGP4","NORAD_CAT_ID":"55944","APOAPSIS":"340.786","LAUNCH_DATE":"2023-03-17","COUNTRY_CODE":"US","DECAY_DATE":null,"OBJECT_ID":"2023-037AG","MEAN_ANOMALY":"316.6820","INCLINATION":"70.0001","OBJECT_NAME":"STARLINK-5926","EPHEMERIS_TYPE":"0","OBJECT_TYPE":"PAYLOAD","REV_AT_EPOCH":"274","PERIAPSIS":"336.098","MEAN_MOTION_DDOT":"0.0000000000000","BSTAR":"-0.00613360000000","FILE":"3876608","SEMIMAJOR_AXIS":"6716.577","CENTER_NAME":"EARTH","MEAN_MOTION_DOT":"-0.00906282"}];
